[{"OBJECT_NAME":"STARLINK-5974","OBJECT_ID":"2023-058AD","EPOCH":"2025-12-17T23:12:48.414528","MEAN_MOTION":15.05650671,"ECCENTRICITY":0.00023753,"INCLINATION":97.6037,"RA_OF_ASC_NODE":350.7159,"ARG_OF_PERICENTER":77.1625,"MEAN_ANOMALY":282.9867,"EPHEMERIS_TYPE":0,"CLASSIFICATION_TYPE":"U","NORAD_CAT_ID":56344,"ELEMENT_SET_NO":999,"REV_AT_EPOCH":14590,"BSTAR":1.0472118e-5,"MEAN_MOTION_DOT":9.0e-7,"MEAN_MOTION_DDOT":0},{"OBJECT_NAME":"STARLINK-5979","OBJECT_ID":"2023-058AE","EPOCH":"2025-12-18T06:02:47.177088","MEAN_MOTION":15.01265512,"ECCENTRICITY":0.00013565,"INCLINATION":97.6027,"RA_OF_ASC_NODE":350.4955,"ARG_OF_PERICENTER":95.5501,"MEAN_ANOMALY":264.5878,"EPHEMERIS_TYPE":0,"CLASSIFICATION_TYPE":"U","NORAD_CAT_ID":56345,"ELEMENT_SET_NO":999,"REV_AT_EPOCH":14591,"BSTAR":7.0905264e-5,"MEAN_MOTION_DOT":8.53e-6,"MEAN_MOTION_DDOT":0},{"OBJECT_NAME":"STARLINK-5837","OBJECT_ID":"2023-058AF","EPOCH":"2025-12-18T06:08:07.747008","MEAN_MOTION":15.01271283,"ECCENTRICITY":0.00018152,"INCLINATION":97.6026,"RA_OF_ASC_NODE":350.4911,"ARG_OF_PERICENTER":85.0886,"MEAN_ANOMALY":275.0546,"EPHEMERIS_TYPE":0,"CLASSIFICATION_TYPE":"U","NORAD_CAT_ID":56346,"ELEMENT_SET_NO":999,"REV_AT_EPOCH":14591,"BSTAR":4.3191971e-5,"MEAN_MOTION_DOT":4.97e-6,"MEAN_MOTION_DDOT":0},{"OBJECT_NAME":"STARLINK-5829","OBJECT_ID":"2023-058AG","EPOCH":"2025-12-18T05:59:31.556256","MEAN_MOTION":15.05651036,"ECCENTRICITY":0.00019802,"INCLINATION":97.6035,"RA_OF_ASC_NODE":350.9597,"ARG_OF_PERICENTER":82.0973,"MEAN_ANOMALY":278.0479,"EPHEMERIS_TYPE":0,"CLASSIFICATION_TYPE":"U","NORAD_CAT_ID":56347,"ELEMENT_SET_NO":999,"REV_AT_EPOCH":14594,"BSTAR":-3.8728432e-5,"MEAN_MOTION_DOT":-6.2e-6,"MEAN_MOTION_DDOT":0},{"OBJECT_NAME":"STARLINK-5888","OBJECT_ID":"2023-058AH","EPOCH":"2025-12-18T06:11:08.237472","MEAN_MOTION":15.01261902,"ECCENTRICITY":0.00011854,"INCLINATION":97.6025,"RA_OF_ASC_NODE":350.489,"ARG_OF_PERICENTER":45.0016,"MEAN_ANOMALY":315.1304,"EPHEMERIS_TYPE":0,"CLASSIFICATION_TYPE":"U","NORAD_CAT_ID":56348,"ELEMENT_SET_NO":999,"REV_AT_EPOCH":14591,"BSTAR":-1.0901217e-5,"MEAN_MOTION_DOT":-1.98e-6,"MEAN_MOTION_DDOT":0},{"OBJECT_NAME":"STARLINK-5887","OBJECT_ID":"2023-058AJ","EPOCH":"2025-12-18T05:52:06.990240","MEAN_MOTION":15.01261224,"ECCENTRICITY":9.252e-5,"INCLINATION":97.6029,"RA_OF_ASC_NODE":350.5033,"ARG_OF_PERICENTER":175.449,"MEAN_ANOMALY":184.6743,"EPHEMERIS_TYPE":0,"CLASSIFICATION_TYPE":"U","NORAD_CAT_ID":56349,"ELEMENT_SET_NO":999,"REV_AT_EPOCH":14591,"BSTAR":-3.4445818e-5,"MEAN_MOTION_DOT":-5.01e-6,"MEAN_MOTION_DDOT":0},{"OBJECT_NAME":"STARLINK-5886","OBJECT_ID":"2023-058AK","EPOCH":"2025-12-18T05:47:33.909216","MEAN_MOTION":15.05648977,"ECCENTRICITY":0.00025427,"INCLINATION":97.6027,"RA_OF_ASC_NODE":350.9692,"ARG_OF_PERICENTER":64.8159,"MEAN_ANOMALY":295.3332,"EPHEMERIS_TYPE":0,"CLASSIFICATION_TYPE":"U","NORAD_CAT_ID":56350,"ELEMENT_SET_NO":999,"REV_AT_EPOCH":14594,"BSTAR":-7.3447168e-5,"MEAN_MOTION_DOT":-1.12e-5,"MEAN_MOTION_DDOT":0},{"OBJECT_NAME":"STARLINK-5891","OBJECT_ID":"2023-058AL","EPOCH":"2025-12-18T06:23:26.279232","MEAN_MOTION":15.05655943,"ECCENTRICITY":0.00022186,"INCLINATION":97.6035,"RA_OF_ASC_NODE":350.9394,"ARG_OF_PERICENTER":89.9141,"MEAN_ANOMALY":270.234,"EPHEMERIS_TYPE":0,"CLASSIFICATION_TYPE":"U","NORAD_CAT_ID":56351,"ELEMENT_SET_NO":999,"REV_AT_EPOCH":14594,"BSTAR":-0.00015081677,"MEAN_MOTION_DOT":-2.237e-5,"MEAN_MOTION_DDOT":0},{"OBJECT_NAME":"STARLINK-5885","OBJECT_ID":"2023-058AM","EPOCH":"2025-12-18T05:57:27.238752","MEAN_MOTION":15.01259885,"ECCENTRICITY":0.00012985,"INCLINATION":97.6033,"RA_OF_ASC_NODE":350.4993,"ARG_OF_PERICENTER":88.7138,"MEAN_ANOMALY":271.4236,"EPHEMERIS_TYPE":0,"CLASSIFICATION_TYPE":"U","NORAD_CAT_ID":56352,"ELEMENT_SET_NO":999,"REV_AT_EPOCH":14591,"BSTAR":-2.0648181e-5,"MEAN_MOTION_DOT":-3.23e-6,"MEAN_MOTION_DDOT":0},{"OBJECT_NAME":"STARLINK-5874","OBJECT_ID":"2023-058AN","EPOCH":"2025-12-17T23:06:52.202880","MEAN_MOTION":15.01262363,"ECCENTRICITY":0.00014799,"INCLINATION":97.605,"RA_OF_ASC_NODE":350.2636,"ARG_OF_PERICENTER":108.1901,"MEAN_ANOMALY":251.9485,"EPHEMERIS_TYPE":0,"CLASSIFICATION_TYPE":"U","NORAD_CAT_ID":56353,"ELEMENT_SET_NO":999,"REV_AT_EPOCH":14587,"BSTAR":3.0402916e-5,"MEAN_MOTION_DOT":3.32e-6,"MEAN_MOTION_DDOT":0},{"OBJECT_NAME":"STARLINK-5877","OBJECT_ID":"2023-058AP","EPOCH":"2025-12-18T06:51:20.744064","MEAN_MOTION":15.05654241,"ECCENTRICITY":0.00017329,"INCLINATION":97.6033,"RA_OF_ASC_NODE":350.912,"ARG_OF_PERICENTER":72.4201,"MEAN_ANOMALY":287.7215,"EPHEMERIS_TYPE":0,"CLASSIFICATION_TYPE":"U","NORAD_CAT_ID":56354,"ELEMENT_SET_NO":999,"REV_AT_EPOCH":14594,"BSTAR":-8.8711428e-5,"MEAN_MOTION_DOT":-1.341e-5,"MEAN_MOTION_DDOT":0},{"OBJECT_NAME":"STARLINK-5533","OBJECT_ID":"2023-058AQ","EPOCH":"2025-12-18T05:41:27.479904","MEAN_MOTION":15.01260799,"ECCENTRICITY":0.00024109,"INCLINATION":97.6033,"RA_OF_ASC_NODE":350.5128,"ARG_OF_PERICENTER":170.479,"MEAN_ANOMALY":189.6481,"EPHEMERIS_TYPE":0,"CLASSIFICATION_TYPE":"U","NORAD_CAT_ID":56355,"ELEMENT_SET_NO":999,"REV_AT_EPOCH":14591,"BSTAR":-7.5186384e-5,"MEAN_MOTION_DOT":-1.024e-5,"MEAN_MOTION_DDOT":0},{"OBJECT_NAME":"STARLINK-5535","OBJECT_ID":"2023-058AR","EPOCH":"2025-12-18T06:19:27.966432","MEAN_MOTION":15.05644488,"ECCENTRICITY":0.00021939,"INCLINATION":97.6036,"RA_OF_ASC_NODE":350.9423,"ARG_OF_PERICENTER":88.2396,"MEAN_ANOMALY":271.9082,"EPHEMERIS_TYPE":0,"CLASSIFICATION_TYPE":"U","NORAD_CAT_ID":56356,"ELEMENT_SET_NO":999,"REV_AT_EPOCH":14594,"BSTAR":-9.5071514e-5,"MEAN_MOTION_DOT":-1.432e-5,"MEAN_MOTION_DDOT":0},{"OBJECT_NAME":"STARLINK-5538","OBJECT_ID":"2023-058AS","EPOCH":"2025-12-17T23:08:50.693568","MEAN_MOTION":15.05645475,"ECCENTRICITY":0.00024292,"INCLINATION":97.6042,"RA_OF_ASC_NODE":350.7216,"ARG_OF_PERICENTER":90.3221,"MEAN_ANOMALY":269.8284,"EPHEMERIS_TYPE":0,"CLASSIFICATION_TYPE":"U","NORAD_CAT_ID":56357,"ELEMENT_SET_NO":999,"REV_AT_EPOCH":14590,"BSTAR":-1.0206744e-5,"MEAN_MOTION_DOT":-2.08e-6,"MEAN_MOTION_DDOT":0},{"OBJECT_NAME":"STARLINK-5482","OBJECT_ID":"2023-058AT","EPOCH":"2025-12-18T05:46:47.057952","MEAN_MOTION":15.01264268,"ECCENTRICITY":0.00023218,"INCLINATION":97.6032,"RA_OF_ASC_NODE":350.5078,"ARG_OF_PERICENTER":169.183,"MEAN_ANOMALY":190.9445,"EPHEMERIS_TYPE":0,"CLASSIFICATION_TYPE":"U","NORAD_CAT_ID":56358,"ELEMENT_SET_NO":999,"REV_AT_EPOCH":14591,"BSTAR":-5.6581153e-5,"MEAN_MOTION_DOT":-7.85e-6,"MEAN_MOTION_DDOT":0},{"OBJECT_NAME":"STARLINK-5551","OBJECT_ID":"2023-058AU","EPOCH":"2025-12-18T05:39:08.133984","MEAN_MOTION":15.01262768,"ECCENTRICITY":0.00020914,"INCLINATION":97.6037,"RA_OF_ASC_NODE":350.5146,"ARG_OF_PERICENTER":166.5146,"MEAN_ANOMALY":193.6134,"EPHEMERIS_TYPE":0,"CLASSIFICATION_TYPE":"U","NORAD_CAT_ID":56359,"ELEMENT_SET_NO":999,"REV_AT_EPOCH":14591,"BSTAR":-7.2019973e-5,"MEAN_MOTION_DOT":-9.83e-6,"MEAN_MOTION_DDOT":0}]
