STARLINK-5974           
1 56344U 23058AD  25351.96722702  .00000090  00000+0  10472-4 0  9997
2 56344  97.6037 350.7159 0002375  77.1625 282.9867 15.05650671145908
STARLINK-5979           
1 56345U 23058AE  25352.25193492  .00000853  00000+0  70905-4 0  9993
2 56345  97.6027 350.4955 0001356  95.5501 264.5878 15.01265512145915
STARLINK-5837           
1 56346U 23058AF  25352.25564522  .00000497  00000+0  43192-4 0  9992
2 56346  97.6026 350.4911 0001815  85.0886 275.0546 15.01271283145918
STARLINK-5829           
1 56347U 23058AG  25352.24967079 -.00000620  00000+0 -38728-4 0  9995
2 56347  97.6035 350.9597 0001980  82.0973 278.0479 15.05651036145944
STARLINK-5888           
1 56348U 23058AH  25352.25773423 -.00000198  00000+0 -10901-4 0  9998
2 56348  97.6025 350.4890 0001185  45.0016 315.1304 15.01261902145911
STARLINK-5887           
1 56349U 23058AJ  25352.24452535 -.00000501  00000+0 -34446-4 0  9994
2 56349  97.6029 350.5033 0000925 175.4490 184.6743 15.01261224145914
STARLINK-5886           
1 56350U 23058AK  25352.24136469 -.00001120  00000+0 -73447-4 0  9993
2 56350  97.6027 350.9692 0002542  64.8159 295.3332 15.05648977145944
STARLINK-5891           
1 56351U 23058AL  25352.26627638 -.00002237  00000+0 -15082-3 0  9999
2 56351  97.6035 350.9394 0002218  89.9141 270.2340 15.05655943145944
STARLINK-5885           
1 56352U 23058AM  25352.24823193 -.00000323  00000+0 -20648-4 0  9991
2 56352  97.6033 350.4993 0001298  88.7138 271.4236 15.01259885145918
STARLINK-5874           
1 56353U 23058AN  25351.96310420  .00000332  00000+0  30403-4 0  9992
2 56353  97.6050 350.2636 0001479 108.1901 251.9485 15.01262363145875
STARLINK-5877           
1 56354U 23058AP  25352.28565676 -.00001341  00000+0 -88711-4 0  9992
2 56354  97.6033 350.9120 0001732  72.4201 287.7215 15.05654241145940
STARLINK-5533           
1 56355U 23058AQ  25352.23712361 -.00001024  00000+0 -75186-4 0  9993
2 56355  97.6033 350.5128 0002410 170.4790 189.6481 15.01260799145910
STARLINK-5535           
1 56356U 23058AR  25352.26351813 -.00001432  00000+0 -95072-4 0  9997
2 56356  97.6036 350.9423 0002193  88.2396 271.9082 15.05644488145942
STARLINK-5538           
1 56357U 23058AS  25351.96447562 -.00000208  00000+0 -10207-4 0  9998
2 56357  97.6042 350.7216 0002429  90.3221 269.8284 15.05645475145904
STARLINK-5482           
1 56358U 23058AT  25352.24082243 -.00000785  00000+0 -56581-4 0  9997
2 56358  97.6032 350.5078 0002321 169.1830 190.9445 15.01264268145917
STARLINK-5551           
1 56359U 23058AU  25352.23551081 -.00000983  00000+0 -72020-4 0  9994
2 56359  97.6037 350.5146 0002091 166.5146 193.6134 15.01262768145912
